KUIPER-00125            
1 65954U 25228H   25316.31901200  .00082072  00000+0  23599-2 0  9999
2 65954  51.8779 167.1581 0004739 245.4129 114.6363 15.35073080  5749
KUIPER-00126            
1 65955U 25228J   25317.16671295 -.00834965  00000+0 -33235-1 0  9997
2 65955  51.8809 163.3419 0005435 272.8733 312.1456 15.27386314  5297
KUIPER-00127            
1 65956U 25228K   25317.16671295  .00029844  00000+0  91996-3 0  9998
2 65956  51.8792 163.0230 0005131 251.7986 145.7688 15.33344889  4739
KUIPER-00128            
1 65957U 25228L   25316.96858676  .00058015  00000+0  16806-2 0  9994
2 65957  51.8745 164.0190 0006078 244.1367 115.8992 15.34993322  5846
KUIPER-00129            
1 65958U 25228M   25316.96753429  .00060304  00000+0  17315-2 0  9995
2 65958  51.8829 164.0119 0006823 242.1173 117.9122 15.35249805  5841
KUIPER-00130            
1 65959U 25228N   25316.97214100  .00053843  00000+0  15645-2 0  9999
2 65959  51.8814 164.0337 0006393 255.5228 104.5049 15.34929491  5844
KUIPER-00134            
1 65960U 25228P   25316.90879830  .00049799  00000+0  14511-2 0  9997
2 65960  51.8814 164.3587 0005733 257.2442 102.7904 15.34877913  5830
KUIPER-00135            
1 65961U 25228Q   25316.58288773  .00054769  00000+0  15929-2 0  9999
2 65961  51.8773 165.9354 0003856 239.8289 120.2315 15.34903323  5783
